CHAMRAN-1               
1 61072U 24165B   26068.91010681  .00007263  00000+0  44320-3 0  9995
2 61072  64.0789   8.4365 0045019 310.8781  48.8437 15.10235792 81665
STARLINK-34988          
1 65453U 25194V   26068.61370029  .00002505  00000+0  19946-3 0  9997
2 65453  97.6042 285.4211 0002492  53.9876 306.1579 15.01260784 29704
